COSMOS 2534 [GLONASS-M] 
1 44299U 19030A   26189.59045339  .00000126  00000+0  00000+0 0  9992
2 44299  64.3704 191.8956 0013516 275.0129  83.9992  2.13102187 55370
BEIDOU-3 IGSO-2         
1 44337U 19035A   26189.30945120 -.00000073  00000+0  00000+0 0  9998
2 44337  55.2505 158.6776 0039608 216.3649 141.5142  1.00259890 25876
NAVSTAR 78 (USA 293)    
1 44506U 19056A   26189.53713956 -.00000074  00000+0  00000+0 0  9995
2 44506  55.6258 330.2953 0063146 198.0452 125.5452  2.00569918 50498
BEIDOU-3 M24            
1 44542U 19061A   26189.18365049  .00000122  00000+0  00000+0 0  9991
2 44542  54.3975 182.0197 0008571 359.2288   0.7793  1.86229345 46185
BEIDOU-3 M23            
1 44543U 19061B   26189.43788944  .00000122  00000+0  00000+0 0  9993
2 44543  54.3960 181.9796 0005860 339.6838 102.2392  1.86227401 46199
EUTELSAT 5 WEST B       
1 44624U 19067A   26189.35593648 -.00000027  00000+0  00000+0 0  9990
2 44624   0.0645 342.2991 0003124 126.4907 300.6528  1.00271321 24643
BEIDOU-3 M22            
1 44793U 19078A   26186.33900275 -.00000058  00000+0  00000+0 0  9996
2 44793  53.9186 299.1896 0005914  49.8831 310.1966  1.86227646 44980
BEIDOU-3 M21            
1 44794U 19078B   26189.16367219 -.00000063  00000+0  00000+0 0  9992
2 44794  53.8889 299.0507 0003790  48.5315 311.5256  1.86228045 45040
COSMOS 2544 [GLONASS-M] 
1 44850U 19088A   26189.14609390 -.00000022  00000+0  00000+0 0  9998
2 44850  65.5763  73.0319 0012505 255.7157 104.2060  2.13103113 51164
BEIDOU-3 M19            
1 44864U 19090A   26189.14410865 -.00000045  00000+0  00000+0 0  9998
2 44864  56.5765  62.0989 0017043 297.4467 246.9869  1.86231659 44621
BEIDOU-3 M20            
1 44865U 19090B   26189.59078983 -.00000046  00000+0  00000+0 0  9990
2 44865  56.5782  62.1188 0014984 312.3282 261.1678  1.86231598 44614
BEIDOU-3 G2             
1 45344U 20017A   26189.58671568 -.00000128  00000+0  00000+0 0  9992
2 45344   2.9047  47.6348 0002297  55.0247 115.1677  1.00270352 23473
COSMOS 2545 [GLONASS-M] 
1 45358U 20018A   26188.87178822 -.00000052  00000+0  00000+0 0  9990
2 45358  64.3418 311.6924 0009213 230.0450 129.8870  2.13102711 49105
BEIDOU-3 G3             
1 45807U 20040A   26189.62936097 -.00000340  00000+0  00000+0 0  9994
2 45807   2.4967  67.5088 0001846 329.6562 226.4999  1.00267463 22284
NAVSTAR 79 (USA 304)    
1 45854U 20041A   26187.18030691 -.00000055  00000+0  00000+0 0  9994
2 45854  56.6823  28.2076 0064724 204.5515 154.8185  2.00558250 44410
GALAXY 30 (G-30)        
1 46114U 20056C   26189.54602083  .00000052  00000+0  00000+0 0  9998
2 46114   0.0161  50.2715 0002076  58.5145 249.2822  1.00270721 21506
COSMOS 2547 [GLONASS-K] 
1 46805U 20075A   26189.06147770  .00000125  00000+0  00000+0 0  9991
2 46805  64.6012 191.7788 0009447 239.8326 120.1056  2.13100176 44354
NAVSTAR 80 (USA 309)    
1 46826U 20078A   26189.20407488  .00000106  00000+0  00000+0 0  9997
2 46826  53.9782 209.9265 0074358 207.6144 150.0320  2.00564872 41927
NAVSTAR 81 (USA 319)    
1 48859U 21054A   26189.46917618 -.00000074  00000+0  00000+0 0  9994
2 48859  55.1634 331.6051 0026254 228.4804 146.9342  2.00567530 37182
QZS-1R (MICHIBIKI-1R)   
1 49336U 21096A   26188.59693977 -.00000264  00000+0  00000+0 0  9994
2 49336  37.5005  79.2823 0755406 272.1222 281.4736  1.00248309 17212
GSAT0223 (GALILEO 27)   
1 49809U 21116A   26188.53054281 -.00000072  00000+0  00000+0 0  9992
2 49809  57.1541 341.1270 0002091 192.1025 172.9175  1.70476066 28532
GSAT0224 (GALILEO 28)   
1 49810U 21116B   26188.35016565 -.00000071  00000+0  00000+0 0  9996
2 49810  57.1546 341.1306 0001631 175.8676 191.0805  1.70476148 28553
COSMOS 2557 [GLONASS-K] 
1 52984U 22075A   26188.28712434 -.00000050  00000+0  00000+0 0  9994
2 52984  64.2857 313.7776 0010595 272.6042  87.2866  2.13102498 31145
COSMOS 2559 [GLONASS-K] 
1 54031U 22130A   26188.57607023 -.00000051  00000+0  00000+0 0  9991
2 54031  64.2580 313.8500 0012956 180.1855 179.8260  2.13101678 29127
COSMOS 2564 [GLONASS-M] 
1 54377U 22161A   26189.35775934  .00000126  00000+0  00000+0 0  9994
2 54377  64.7435 192.0089 0012248 225.0561 134.8773  2.13101979 28088
NAVSTAR 82 (USA 343)    
1 55268U 23009A   26189.14195422  .00000071  00000+0  00000+0 0  9990
2 55268  55.1237 147.6955 0006209 319.8911 217.8197  2.00570045 25664
BEIDOU-3 G4             
1 56564U 23066A   26187.31732966 -.00000268  00000+0  00000+0 0  9999
2 56564   0.4680 336.2679 0005056 178.9368  23.3032  1.00266978 11587
NVS-01 (IRNSS-1J)       
1 56759U 23076A   26189.52517885 -.00000319  00000+0  00000+0 0  9999
2 56759   2.1185 243.3997 0003338   7.5852 354.0984  1.00268177 11335
COSMOS 2569 [GLONASS-K2]
1 57517U 23114A   26189.37005681 -.00000024  00000+0  00000+0 0  9997
2 57517  65.3140  71.9064 0009906 296.3429  63.6165  2.13103757 22710
BEIDOU-3 M28            
1 58654U 23207A   26189.24067106 -.00000047  00000+0  00000+0 0  9994
2 58654  55.7713  61.5929 0002616   1.0411 359.0204  1.86229661 17239
BEIDOU-3 M26            
1 58655U 23207B   26187.96425191 -.00000044  00000+0  00000+0 0  9991
2 58655  55.7724  61.6226 0002296 323.9570  36.0904  1.86229712 17190
